NORAD_CAT_ID,OBJECT_NAME,OBJECT_TYPE,EPOCH,MEAN_MOTION,ECCENTRICITY,INCLINATION,RA_OF_ASC_NODE,ARG_OF_PERICENTER,MEAN_ANOMALY,BSTAR,MEAN_MOTION_DOT,MEAN_MOTION_DDOT,TLE_LINE0,TLE_LINE1,TLE_LINE2,SEMIMAJOR_AXIS,PERIOD,APOGEE,PERIGEE,DECAYED
53152.0,STARLINK-4045,PAYLOAD,2023-03-11 22:04:04,15.08805401,0.0001817,53.2191,34.2375,94.557,265.563,0.00062946,9.735e-05,0.0,0 STARLINK-4045,1 53152U 22083W   23070.91949765  .00009735  00000-0  62946-3 0  9997,2 53152  53.2191  34.2375 0001817  94.5570 265.5630 15.08805401 36233,6917.986,95.44,541.108,538.594,0.0
53152.0,STARLINK-4045,PAYLOAD,2023-03-12 01:14:50,15.08812246,0.000216,53.2184,33.6437,121.3278,238.7926,0.0015661,0.00024706,0.0,0 STARLINK-4045,1 53152U 22083W   23071.05197892  .00024706  00000-0  15661-2 0  9995,2 53152  53.2184  33.6437 0002160 121.3278 238.7926 15.08812246 36889,6917.965,95.439,541.325,538.336,0.0
53152.0,STARLINK-4045,PAYLOAD,2023-03-12 10:47:09,15.08848135,0.0001514,53.2192,31.864,99.8122,260.3041,0.0023395,0.0003715,0.0,0 STARLINK-4045,1 53152U 22083W   23071.44942117  .00037150  00000-0  23395-2 0  9996,2 53152  53.2192  31.8640 0001514  99.8122 260.3041 15.08848135 36945,6917.856,95.437,540.768,538.673,0.0
53152.0,STARLINK-4045,PAYLOAD,2023-03-12 23:30:16,15.08817003,0.0001231,53.2201,29.4857,108.2005,251.9121,0.00094999,0.00014854,0.0,0 STARLINK-4045,1 53152U 22083W   23071.97935442  .00014854  00000-0  94999-3 0  9992,2 53152  53.2201  29.4857 0001231 108.2005 251.9121 15.08817003 37025,6917.951,95.439,540.667,538.964,0.0
53152.0,STARLINK-4045,PAYLOAD,2023-03-13 07:27:12,15.08840501,0.0001351,53.2205,28.0009,82.0334,278.0811,0.0021916,0.00034764,0.0,0 STARLINK-4045,1 53152U 22083W   23072.31055790  .00034764  00000-0  21916-2 0  9990,2 53152  53.2205  28.0009 0001351  82.0334 278.0811 15.08840501 37070,6917.879,95.438,540.678,538.809,0.0
53152.0,STARLINK-4045,PAYLOAD,2023-03-14 05:42:37,15.08836972,0.0001239,53.2184,23.8346,82.668,277.4453,0.0016503,0.00026072,0.0,0 STARLINK-4045,1 53152U 22083W   23073.23793234  .00026072  00000-0  16503-2 0  9993,2 53152  53.2184  23.8346 0001239  82.6680 277.4453 15.08836972 37216,6917.89,95.438,540.612,538.898,0.0
53152.0,STARLINK-4045,PAYLOAD,2023-03-14 13:39:33,15.08846494,0.0001339,53.2185,22.3478,84.1867,275.9278,0.0018021,0.00028514,0.0,0 STARLINK-4045,1 53152U 22083W   23073.56913333  .00028514  00000-0  18021-2 0  9993,2 53152  53.2185  22.3478 0001339  84.1867 275.9278 15.08846494 36635,6917.861,95.437,540.652,538.799,0.0
53152.0,STARLINK-4045,PAYLOAD,2023-03-15 03:58:00,15.08896214,0.0001509,53.2183,19.6719,82.2752,277.8412,0.002408,0.00038303,0.0,0 STARLINK-4045,1 53152U 22083W   23074.16528008  .00038303  00000-0  24080-2 0  9990,2 53152  53.2183  19.6719 0001509  82.2752 277.8412 15.08896214 37357,6917.709,95.434,540.617,538.53,0.0
53152.0,STARLINK-4045,PAYLOAD,2023-03-15 19:51:51,15.08856593,0.0001586,53.2182,16.6984,88.4576,271.6597,0.00052781,8.126e-05,0.0,0 STARLINK-4045,1 53152U 22083W   23074.82767969  .00008126  00000-0  52781-3 0  9994,2 53152  53.2182  16.6984 0001586  88.4576 271.6597 15.08856593 37457,6917.83,95.437,540.792,538.598,0.0
53152.0,STARLINK-4045,PAYLOAD,2023-03-16 02:13:24,15.08851317,0.0001178,53.2183,15.5099,55.2559,304.8544,0.00036155,5.473e-05,0.0,0 STARLINK-4045,1 53152U 22083W   23075.09264059  .00005473  00000-0  36155-3 0  9995,2 53152  53.2183  15.5099 0001178  55.2559 304.8544 15.08851317 37497,6917.846,95.437,540.526,538.896,0.0
53152.0,STARLINK-4045,PAYLOAD,2023-03-16 22:53:25,15.08841229,0.0001238,53.2189,11.6451,81.3143,278.799,0.0012832,0.00020194,0.0,0 STARLINK-4045,1 53152U 22083W   23075.95376799  .00020194  00000-0  12832-2 0  9997,2 53152  53.2189  11.6451 0001238  81.3143 278.7990 15.08841229 37628,6917.877,95.437,540.598,538.885,0.0
53152.0,STARLINK-4045,PAYLOAD,2023-03-17 13:11:54,15.08821304,0.0001291,53.2173,8.9666,73.4239,286.6895,0.0020676,0.00032754,0.0,0 STARLINK-4045,1 53152U 22083W   23076.54993215  .00032754  00000-0  20676-2 0  9991,2 53152  53.2173   8.9666 0001291  73.4239 286.6895 15.08821304 37719,6917.938,95.439,540.696,538.909,0.0
53152.0,STARLINK-4045,PAYLOAD,2023-03-17 19:33:26,15.08832148,0.0001412,53.2181,7.7778,76.6951,283.4199,0.00059102,9.129e-05,0.0,0 STARLINK-4045,1 53152U 22083W   23076.81489352  .00009129  00000-0  59102-3 0  9990,2 53152  53.2181   7.7778 0001412  76.6951 283.4199 15.08832148 37125,6917.904,95.438,540.746,538.793,0.0
53152.0,STARLINK-4045,PAYLOAD,2023-03-18 00:19:35,15.08869872,0.0001396,53.2179,6.8858,56.336,303.7765,0.0021159,0.00033575,0.0,0 STARLINK-4045,1 53152U 22083W   23077.01360865  .00033575  00000-0  21159-2 0  9992,2 53152  53.2179   6.8858 0001396  56.3360 303.7765 15.08869872 37782,6917.789,95.436,540.62,538.688,0.0
53152.0,STARLINK-4045,PAYLOAD,2023-03-18 22:34:59,15.08843394,0.0001287,53.2186,2.7217,97.3107,262.8031,0.00017036,2.425e-05,0.0,0 STARLINK-4045,1 53152U 22083W   23077.94096834  .00002425  00000-0  17036-3 0  9996,2 53152  53.2186   2.7217 0001287  97.3107 262.8031 15.08843394 37295,6917.87,95.437,540.625,538.845,0.0
53152.0,STARLINK-4045,PAYLOAD,2023-03-19 06:31:55,15.08840687,0.0001231,53.2187,1.235,84.7058,275.4074,0.00011782,1.588e-05,0.0,0 STARLINK-4045,1 53152U 22083W   23078.27216948  .00001588  00000-0  11782-3 0  9994,2 53152  53.2187   1.2350 0001231  84.7058 275.4074 15.08840687 37976,6917.878,95.438,540.595,538.892,0.0
53152.0,STARLINK-4045,PAYLOAD,2023-03-19 11:18:05,15.08823011,0.0001353,53.2188,0.3436,81.3988,278.7157,-0.00011715,-2.151e-05,0.0,0 STARLINK-4045,1 53152U 22083W   23078.47089897 -.00002151  00000-0 -11715-3 0  9992,2 53152  53.2188   0.3436 0001353  81.3988 278.7157 15.08823011 38007,6917.932,95.439,540.733,538.861,0.0
53152.0,STARLINK-4045,PAYLOAD,2023-03-19 17:39:38,15.08829422,0.0001455,53.2193,359.1555,84.2533,275.8625,-7.0086e-05,-1.403e-05,0.0,0 STARLINK-4045,1 53152U 22083W   23078.73585858 -.00001403  00000-0 -70086-4 0  9995,2 53152  53.2193 359.1555 0001455  84.2533 275.8625 15.08829422 37415,6917.913,95.438,540.784,538.771,0.0
53152.0,STARLINK-4045,PAYLOAD,2023-03-20 04:47:19,15.08848504,0.0001386,53.2177,357.0734,76.7158,283.3988,0.00018815,2.708e-05,0.0,0 STARLINK-4045,1 53152U 22083W   23079.19952885  .00002708  00000-0  18815-3 0  9992,2 53152  53.2177 357.0734 0001386  76.7158 283.3988 15.08848504 38111,6917.854,95.437,540.678,538.761,0.0
53152.0,STARLINK-4045,PAYLOAD,2023-03-20 22:16:34,15.08838966,0.0001327,53.2178,353.803,94.3211,265.7932,0.00016054,2.268e-05,0.0,0 STARLINK-4045,1 53152U 22083W   23079.92817414  .00002268  00000-0  16054-3 0  9995,2 53152  53.2178 353.8030 0001327  94.3211 265.7932 15.08838966 38222,6917.884,95.438,540.667,538.831,0.0
53152.0,STARLINK-4045,PAYLOAD,2023-03-21 04:38:05,15.08860568,0.0001272,53.2189,352.6147,99.4618,260.6518,0.00050565,7.773e-05,0.0,0 STARLINK-4045,1 53152U 22083W   23080.19312430  .00007773  00000-0  50565-3 0  9995,2 53152  53.2189 352.6147 0001272  99.4618 260.6518 15.08860568 38267,6917.818,95.436,540.562,538.803,0.0
53152.0,STARLINK-4045,PAYLOAD,2023-03-21 22:07:22,15.08815937,0.00016,53.2189,349.3458,131.7028,228.4101,-0.00036463,-6.083e-05,0.0,0 STARLINK-4045,1 53152U 22083W   23080.92178767 -.00006083  00000-0 -36463-3 0  9995,2 53152  53.2189 349.3458 0001600 131.7028 228.4101 15.08815937 37747,6917.954,95.439,540.926,538.712,0.0
53152.0,STARLINK-4045,PAYLOAD,2023-03-22 02:53:32,15.08817874,0.0001365,53.2173,348.4495,119.069,241.0439,-0.00026394,-4.483e-05,0.0,0 STARLINK-4045,1 53152U 22083W   23081.12051019 -.00004483  00000-0 -26394-3 0  9992,2 53152  53.2173 348.4495 0001365 119.0690 241.0439 15.08817874 38404,6917.948,95.439,540.757,538.869,0.0
53152.0,STARLINK-4045,PAYLOAD,2023-03-22 21:58:08,15.08845639,9.45e-05,53.218,344.883,37.8314,322.2744,0.00028647,4.275e-05,0.0,0 STARLINK-4045,1 53152U 22083W   23081.91538043  .00004275  00000-0  28647-3 0  9996,2 53152  53.2180 344.8830 0000945  37.8314 322.2744 15.08845639 37891,6917.863,95.437,540.382,539.074,0.0
53152.0,STARLINK-4045,PAYLOAD,2023-03-23 02:44:17,15.08873021,0.0001203,53.2169,343.9905,129.5044,230.6055,0.00081105,0.00012655,0.0,0 STARLINK-4045,1 53152U 22083W   23082.11408880  .00012655  00000-0  81105-3 0  9993,2 53152  53.2169 343.9905 0001203 129.5044 230.6055 15.08873021 38555,6917.779,95.435,540.477,538.812,0.0
53152.0,STARLINK-4045,PAYLOAD,2023-03-23 20:13:33,15.08842245,0.0001003,53.2172,340.7184,113.9503,246.1594,0.00023231,3.412e-05,0.0,0 STARLINK-4045,1 53152U 22083W   23082.84274738  .00003412  00000-0  23231-3 0  9993,2 53152  53.2172 340.7184 0001003 113.9503 246.1594 15.08842245 38035,6917.874,95.437,540.432,539.045,0.0
53152.0,STARLINK-4045,PAYLOAD,2023-03-24 02:35:05,15.08869403,0.0001213,53.2173,339.5287,68.4849,291.6272,0.00064643,0.00010023,0.0,0 STARLINK-4045,1 53152U 22083W   23083.10769926  .00010023  00000-0  64643-3 0  9999,2 53152  53.2173 339.5287 0001213  68.4849 291.6272 15.08869403 38703,6917.791,95.436,540.495,538.816,0.0
53152.0,STARLINK-4045,PAYLOAD,2023-03-24 20:04:18,15.08860606,0.0001234,53.2162,336.2602,67.0981,293.0141,0.00064447,9.989e-05,0.0,0 STARLINK-4045,1 53152U 22083W   23083.83632680  .00009989  00000-0  64447-3 0  9996,2 53152  53.2162 336.2602 0001234  67.0981 293.0141 15.08860606 38810,6917.817,95.436,540.536,538.829,0.0
53152.0,STARLINK-4045,PAYLOAD,2023-03-24 21:39:41,15.08863523,0.0001444,53.218,335.9621,67.3639,292.7506,0.00073313,0.00011406,0.0,0 STARLINK-4045,1 53152U 22083W   23083.90256631  .00011406  00000-0  73313-3 0  9991,2 53152  53.2180 335.9621 0001444  67.3639 292.7506 15.08863523 38196,6917.808,95.436,540.672,538.675,0.0
53152.0,STARLINK-4045,PAYLOAD,2023-03-25 04:01:13,15.08894145,0.0001377,53.2172,334.7738,82.1715,277.9433,0.0016662,0.00026368,0.0,0 STARLINK-4045,1 53152U 22083W   23084.16751477  .00026368  00000-0  16662-2 0  9994,2 53152  53.2172 334.7738 0001377  82.1715 277.9433 15.08894145 38860,6917.715,95.434,540.532,538.627,0.0
